[{"OBJECT_NAME":"JILIN-1 GAOFEN 03D18","OBJECT_ID":"2022-019W","EPOCH":"2026-03-09T22:03:04.622400","MEAN_MOTION":15.76695092,"ECCENTRICITY":0.00043918,"INCLINATION":97.3672,"RA_OF_ASC_NODE":161.2344,"ARG_OF_PERICENTER":144.1291,"MEAN_ANOMALY":216.027,"EPHEMERIS_TYPE":0,"CLASSIFICATION_TYPE":"U","NORAD_CAT_ID":51844,"ELEMENT_SET_NO":999,"REV_AT_EPOCH":22438,"BSTAR":0.0011951386,"MEAN_MOTION_DOT":0.00194669,"MEAN_MOTION_DDOT":0},{"OBJECT_NAME":"STARLINK-11727 [DTC]","OBJECT_ID":"2025-111A","EPOCH":"2026-03-09T22:22:13.243008","MEAN_MOTION":15.70926326,"ECCENTRICITY":0.00016203,"INCLINATION":42.9957,"RA_OF_ASC_NODE":332.7136,"ARG_OF_PERICENTER":293.1743,"MEAN_ANOMALY":66.8954,"EPHEMERIS_TYPE":0,"CLASSIFICATION_TYPE":"U","NORAD_CAT_ID":64123,"ELEMENT_SET_NO":999,"REV_AT_EPOCH":4667,"BSTAR":0.0045340671,"MEAN_MOTION_DOT":0.00629946,"MEAN_MOTION_DDOT":0}]
